{"fetched_at":"2026-03-29T16:36:15Z","count":15609,"tles":[{"name":"STARLINK-5243","line1":"1 54167U 22141L   26087.85482242  .00001246  00000+0  96374-4 0  9996","line2":"2 54167  53.2170 287.8663 0001513  94.1100 266.0065 15.08836403188615","category":"Starlink"}]}