{
  "norad_id": 54167,
  "name": "STARLINK-5243",
  "history": [
    {
      "epoch": "2026-03-28T20:30:56.657088",
      "apogee_km": 540.8011989001088,
      "perigee_km": 538.7075682517825,
      "latitude_deg": 36.20838889207813,
      "longitude_deg": 38.76295232004486,
      "semi_major_axis_km": 6917.891383575945,
      "eccentricity": 0.00015132,
      "inclination_deg": 53.217,
      "raan_deg": 287.8663,
      "arg_perigee_deg": 94.11,
      "mean_anomaly_deg": 266.0065,
      "mean_motion_rev_day": 15.08836403
    }
  ]
}